{
  "norad_id": 53638,
  "name": "STARLINK-4594",
  "history": [
    {
      "epoch": "2026-03-28T20:29:35.408256Z",
      "apogee_km": 540.6163745455824,
      "perigee_km": 538.8603410647565,
      "latitude_deg": 5.6326775607384046e-05,
      "longitude_deg": 4.056047029926266,
      "height_km": 540.5830489331194,
      "semi_major_axis_km": 6917.875357805169,
      "eccentricity": 0.00012692,
      "inclination_deg": 53.2165,
      "raan_deg": 137.7219,
      "arg_perigee_deg": 86.6674,
      "mean_anomaly_deg": 273.4464,
      "mean_motion_rev_day": 15.08841646
    }
  ]
}